# 2016 11 14 23 56 32.83   43.72500    86.31400    5.0   0.8   0.0  0.0  0.0    1
  BLT  26.74 1  Sg
  BLT  15.52 1  Pg
L6504   2.12 1  Pg
L6504   5.12 1  Sg
L6505   1.76 1  Pg
L6505   4.44 1  Sg
  STZ   8.36 1  Sg
  STZ   4.09 1  Pg
# 2016 11 14 23 37  1.95   43.75400    86.30900    7.0   1.6   0.0  0.0  0.0    2
  BLT  15.85 1  Pg
  BLT  27.88 1  Sg
  HTB   6.88 1  Pg
L6504   1.82 1  Pg
L6504   4.88 1  Sg
L6505   1.76 1  Pg
L6505   4.70 1  Sg
  LHG  18.92 1  Sg
  LHG  10.27 1  Pg
  MSW  31.98 1  Sg
  SCH  15.48 1  Sg
  SHZ  19.39 1  Sg
  SHZ  10.30 1  Pg
  STZ   9.56 1  Sg
  STZ   4.16 1  Pg
  TCH  22.82 1  Pg
  WSU  23.92 1  Pg
  XQG  31.62 1  Pg
